PERSEUS-M1              
1 40039U 14033AF  26134.78425446  .00001425  00000+0  13397-3 0  9990
2 40039  97.9630  78.3749 0012816  53.4019 306.8378 14.95513394645644
POLYITAN-1              
1 40042U 14033AJ  26134.03640911  .00011811  00000+0  38432-3 0  9995
2 40042  98.0970 157.0987 0005407 261.3207  98.7420 15.32040868648363
TIGRISAT                
1 40043U 14033AK  26134.69647705  .00001357  00000+0  16208-3 0  9997
2 40043  97.7792 285.4873 0049422 182.8795 177.2143 14.85012026640657
AEROCUBE 6A             
1 40045U 14033AM  26134.89011335  .00004419  00000+0  37575-3 0  9997
2 40045  97.7217 302.2088 0040286 125.5871 234.9116 14.97724215641638
AEROCUBE 6B             
1 40046U 14033AN  26134.92453585  .00004231  00000+0  34763-3 0  9997
2 40046  97.7168 301.9656 0038126 118.9284 241.5771 14.99144113641776
CANX-4                  
1 40055U 14034C   26134.64604245  .00000576  00000+0  81248-4 0  9997
2 40055  98.3167   8.7220 0013959 116.2602 244.0045 14.81199385639561
CANX-5                  
1 40056U 14034D   26134.57730991  .00000575  00000+0  81106-4 0  9990
2 40056  98.3169   8.6921 0013955 116.6542 243.6100 14.81216303630360
UKUBE-1                 
1 40074U 14037F   26134.44520638  .00004990  00000+0  28715-3 0  9995
2 40074  98.4241 134.1892 0000372  78.4472 281.6798 15.12988036643453
BRITE-PL2 (HEWELIUSZ)   
1 40119U 14049B   26134.76316751  .00000817  00000+0  81197-4 0  9990
2 40119  97.9060 246.5158 0013276 215.9284 144.1044 14.94460611636457
AEROCUBE 5C             
1 40965U 15058B   26134.64217530  .00002016  00000+0  18729-3 0  9995
2 40965  64.7689   6.9321 0129827  76.4605 285.0932 14.91254964360658
AEROCUBE 7              
1 40966U 15058C   26134.33230781  .00003098  00000+0  25617-3 0  9990
2 40966  64.7634 350.8358 0119624  75.2726 286.1610 14.95453722360893
FOX-1A (AO-85)          
1 40967U 15058D   26134.67879375  .00002059  00000+0  19377-3 0  9998
2 40967  64.7770  23.1012 0129035  69.7276 291.7651 14.90763228108579
SINOD-D 1               
1 40968U 15058E   26134.91608596  .00003040  00000+0  25167-3 0  9996
2 40968  64.7764   3.0836 0117549  66.4124 294.9283 14.95634869111682
SNAP-3 ALICE            
1 40970U 15058G   26134.50399978  .00047322  00000+0  72185-3 0  9998
2 40970  64.7533 219.7119 0032972  29.6693 330.6310 15.53548181111648
LMRST-SAT               
1 40971U 15058H   26134.69274139  .00002095  00000+0  19799-3 0  9990
2 40971  64.7775  19.3329 0130824  71.7562 289.7737 14.90388938108568
SNAP-3 EDDIE            
1 40972U 15058J   26134.90566599  .00051339  00000+0  74863-3 0  9997
2 40972  64.7452 209.3012 0033417  33.1620 327.1608 15.54731649113841
PROPCUBE 3              
1 40973U 15058K   26134.60931749  .00002534  00000+0  21876-3 0  9997
2 40973  64.7697 357.4275 0122965  73.2873 288.1694 14.94019232109780
BISONSAT                
1 40974U 15058L   26134.84786297  .00007577  00000+0  37829-3 0  9997
2 40974  64.7593 281.3675 0078724  61.5534 299.3493 15.15490203110566
SNAP-3 JIMI             
1 40975U 15058M   26134.96748755  .00004252  00000+0  30033-3 0  9995
2 40975  64.7654 324.8494 0105002  69.1376 292.0947 15.01944647109232
PROPCUBE 1 (FLORA)      
1 40976U 15058N   26134.34821469  .00001954  00000+0  19292-3 0  9992
2 40976  64.7748  40.0954 0129613  74.1879 287.3478 14.89021352111225
SINOD-D 3               
1 40977U 15058P   26134.70217373  .00002726  00000+0  23841-3 0  9999
2 40977  64.7741  20.3614 0118114  71.5111 289.8796 14.93748257109757
HORYU-4                 
1 41340U 16012D   26134.82768950  .00134150  00000+0  72842-3 0  9992
2 41340  30.9889 320.3702 0005199  40.9689 319.1358 15.78477287565516
RAVAN                   
1 41849U 16067B   26134.53808831  .00029312  00000+0  49624-3 0  9992
2 41849  97.9944  20.3090 0007224 115.7611 244.4386 15.51497027522473
CELTEE 1                
1 41850U 16067C   26134.55650600  .00003477  00000+0  16825-3 0  9996
2 41850  98.0719 358.8321 0001701  58.0784 302.0614 15.19334146520779
OPTICUBE 04             
1 41851U 16067D   26134.53901440  .00001466  00000+0  95706-4 0  9998
2 41851  98.0734 345.0648 0014527 228.1137 131.8852 15.09509776520098
AEROCUBE 8D             
1 41852U 16067E   26134.60731890  .00004596  00000+0  19370-3 0  9996
2 41852  98.0730   2.2303 0002037 237.2066 122.8973 15.23905183520957
AEROCUBE 8C             
1 41853U 16067F   26134.57200582  .00004930  00000+0  20597-3 0  9997
2 41853  98.0601 359.4640 0005670 161.6580 198.4861 15.24142803520940
CORVUS BC2              
1 42846U 17042X   26134.71148476  .00002062  00000+0  14506-3 0  9990
2 42846  97.4039 297.3753 0012065 221.1701 138.8617 15.06073140482029
CORVUS BC1              
1 42847U 17042Y   26134.70989769  .00001982  00000+0  13899-3 0  9992
2 42847  97.4069 298.1661 0011466 194.7341 165.3554 15.06244587482052
MAKERSAT 0              
1 43016U 17073D   26134.39790441  .00018130  00000+0  50691-3 0  9991
2 43016  97.4682  16.6839 0111444  34.1652 326.6695 15.30619591461290
