OBJECT_NAME,OBJECT_ID,EPOCH,MEAN_MOTION,ECCENTRICITY,INCLINATION,RA_OF_ASC_NODE,ARG_OF_PERICENTER,MEAN_ANOMALY,EPHEMERIS_TYPE,CLASSIFICATION_TYPE,NORAD_CAT_ID,ELEMENT_SET_NO,REV_AT_EPOCH,BSTAR,MEAN_MOTION_DOT,MEAN_MOTION_DDOT
PERSEUS-M1,2014-033AF,2026-05-14T18:49:19.585344,14.95513394,.00128167,97.9630,78.3749,53.4019,306.8378,0,U,40039,999,64564,.13397298E-3,.1425E-4,0
POLYITAN-1,2014-033AJ,2026-05-14T00:52:25.747104,15.32040868,.00054074,98.0970,157.0987,261.3207,98.7420,0,U,40042,999,64836,.38431678E-3,.11811E-3,0
TIGRISAT,2014-033AK,2026-05-14T16:42:55.617120,14.85012026,.00494223,97.7792,285.4873,182.8795,177.2143,0,U,40043,999,64065,.1620765E-3,.1357E-4,0
AEROCUBE 6A,2014-033AM,2026-05-14T21:21:45.793440,14.97724215,.00402868,97.7217,302.2088,125.5871,234.9116,0,U,40045,999,64163,.37574805E-3,.4419E-4,0
AEROCUBE 6B,2014-033AN,2026-05-14T22:11:19.897440,14.99144113,.00381264,97.7168,301.9656,118.9284,241.5771,0,U,40046,999,64177,.34763248E-3,.4231E-4,0
CANX-4,2014-034C,2026-05-14T15:30:18.067680,14.81199385,.00139591,98.3167,8.7220,116.2602,244.0045,0,U,40055,999,63956,.81248202E-4,.576E-5,0
CANX-5,2014-034D,2026-05-14T13:51:19.576224,14.81216303,.00139557,98.3169,8.6921,116.6542,243.6100,0,U,40056,999,63036,.81106481E-4,.575E-5,0
UKUBE-1,2014-037F,2026-05-14T10:41:05.831232,15.12988036,.00003725,98.4241,134.1892,78.4472,281.6798,0,U,40074,999,64345,.28714916E-3,.499E-4,0
BRITE-PL2 (HEWELIUSZ),2014-049B,2026-05-14T18:18:57.672864,14.94460611,.00132764,97.9060,246.5158,215.9284,144.1044,0,U,40119,999,63645,.81196894E-4,.817E-5,0
AEROCUBE 5C,2015-058B,2026-05-14T15:24:43.945920,14.91254964,.01298276,64.7689,6.9321,76.4605,285.0932,0,U,40965,999,36065,.18728965E-3,.2016E-4,0
AEROCUBE 7,2015-058C,2026-05-14T07:58:31.394784,14.95453722,.01196248,64.7634,350.8358,75.2726,286.1610,0,U,40966,999,36089,.25617457E-3,.3098E-4,0
FOX-1A (AO-85),2015-058D,2026-05-14T16:17:27.780000,14.90763228,.01290356,64.7770,23.1012,69.7276,291.7651,0,U,40967,999,10857,.19377318E-3,.2059E-4,0
SINOD-D 1,2015-058E,2026-05-14T21:59:09.826944,14.95634869,.01175499,64.7764,3.0836,66.4124,294.9283,0,U,40968,999,11168,.25167042E-3,.304E-4,0
SNAP-3 ALICE,2015-058G,2026-05-14T12:05:45.580992,15.53548181,.00329721,64.7533,219.7119,29.6693,330.6310,0,U,40970,999,11164,.72185179E-3,.47322E-3,0
LMRST-SAT,2015-058H,2026-05-14T16:37:32.856096,14.90388938,.01308246,64.7775,19.3329,71.7562,289.7737,0,U,40971,999,10856,.19799121E-3,.2095E-4,0
SNAP-3 EDDIE,2015-058J,2026-05-14T21:44:09.541536,15.54731649,.0033417,64.7452,209.3012,33.1620,327.1608,0,U,40972,999,11384,.74862622E-3,.51339E-3,0
PROPCUBE 3,2015-058K,2026-05-14T14:37:25.031136,14.94019232,.01229652,64.7697,357.4275,73.2873,288.1694,0,U,40973,999,10978,.21875836E-3,.2534E-4,0
BISONSAT,2015-058L,2026-05-14T20:20:55.360608,15.15490203,.00787242,64.7593,281.3675,61.5534,299.3493,0,U,40974,999,11056,.37828859E-3,.7577E-4,0
SNAP-3 JIMI,2015-058M,2026-05-14T23:13:10.924320,15.01944647,.01050023,64.7654,324.8494,69.1376,292.0947,0,U,40975,999,10923,.30032676E-3,.4252E-4,0
PROPCUBE 1 (FLORA),2015-058N,2026-05-14T08:21:25.749216,14.89021352,.01296135,64.7748,40.0954,74.1879,287.3478,0,U,40976,999,11122,.19291856E-3,.1954E-4,0
SINOD-D 3,2015-058P,2026-05-14T16:51:07.810272,14.93748257,.0118114,64.7741,20.3614,71.5111,289.8796,0,U,40977,999,10975,.2384076E-3,.2726E-4,0
HORYU-4,2016-012D,2026-05-14T19:51:52.372800,15.78477287,.0005199,30.9889,320.3702,40.9689,319.1358,0,U,41340,999,56551,.72841598E-3,.13415E-2,0
RAVAN,2016-067B,2026-05-14T12:54:50.829984,15.51497027,.00072248,97.9944,20.3090,115.7611,244.4386,0,U,41849,999,52247,.49624481E-3,.29312E-3,0
CELTEE 1,2016-067C,2026-05-14T13:21:22.118400,15.19334146,.00017016,98.0719,358.8321,58.0784,302.0614,0,U,41850,999,52077,.16825414E-3,.3477E-4,0
OPTICUBE 04,2016-067D,2026-05-14T12:56:10.844160,15.09509776,.00145279,98.0734,345.0648,228.1137,131.8852,0,U,41851,999,52009,.95706238E-4,.1466E-4,0
AEROCUBE 8D,2016-067E,2026-05-14T14:34:32.352960,15.23905183,.00020372,98.0730,2.2303,237.2066,122.8973,0,U,41852,999,52095,.19369744E-3,.4596E-4,0
AEROCUBE 8C,2016-067F,2026-05-14T13:43:41.302848,15.24142803,.00056702,98.0601,359.4640,161.6580,198.4861,0,U,41853,999,52094,.20596661E-3,.493E-4,0
CORVUS BC2,2017-042X,2026-05-14T17:04:32.283264,15.06073140,.00120659,97.4039,297.3753,221.1701,138.8617,0,U,42846,999,48202,.1450606E-3,.2062E-4,0
CORVUS BC1,2017-042Y,2026-05-14T17:02:15.160416,15.06244587,.00114662,97.4069,298.1661,194.7341,165.3554,0,U,42847,999,48205,.13899E-3,.1982E-4,0
MAKERSAT 0,2017-073D,2026-05-14T09:32:58.941024,15.30619591,.01114445,97.4682,16.6839,34.1652,326.6695,0,U,43016,999,46129,.50690833E-3,.1813E-3,0
